0 GLOBALSTAR M096
1 39075U 13005D   24028.28330113 -.00000080  00000-0  13278-3 0  9993
2 39075  52.0099 330.5666 0000143  81.3365 278.7518 12.62271675507407
0 GLOBALSTAR M078
1 39076U 13005E   24028.25700609  .00000021  00000-0  69696-3 0  9991
2 39076  51.9882  55.8437 0001374 132.1564 227.9420 12.62260053506025
0 GLOBALSTAR M095
1 39077U 13005F   24028.91647062 -.00000089  00000-0  80703-4 0  9996
2 39077  51.9810  51.2803 0000889 159.2895 200.8007 12.62262911505969
